LEMUR-2-KREMPEL-BRO1    
1 63357U 25061G   26064.50147129  .00006076  00000+0  33984-3 0  9993
2 63357  97.5523  41.1370 0017263 244.7415 115.2027 15.13717055 51941
LEMUR-2-LANGER2SPACE    
1 63358U 25061H   26064.70558369  .00006247  00000+0  35260-3 0  9997
2 63358  97.5530  41.1955 0015139 253.7581 106.1984 15.13407871 51968
LEMUR-2-BALTO           
1 63395U 25052BH  26064.68949890  .00008934  00000+0  74421-3 0  9995
2 63395  97.6992 319.5613 0002797   9.9397 350.1881 14.98864860 53255
