[{"OBJECT_NAME":"LEMUR-2-KREMPEL-BRO1","OBJECT_ID":"2025-061G","EPOCH":"2026-03-05T12:02:07.119456","MEAN_MOTION":15.13717055,"ECCENTRICITY":0.0017263,"INCLINATION":97.5523,"RA_OF_ASC_NODE":41.137,"ARG_OF_PERICENTER":244.7415,"MEAN_ANOMALY":115.2027,"EPHEMERIS_TYPE":0,"CLASSIFICATION_TYPE":"U","NORAD_CAT_ID":63357,"ELEMENT_SET_NO":999,"REV_AT_EPOCH":5194,"BSTAR":0.00033984,"MEAN_MOTION_DOT":6.076e-5,"MEAN_MOTION_DDOT":0},{"OBJECT_NAME":"LEMUR-2-LANGER2SPACE","OBJECT_ID":"2025-061H","EPOCH":"2026-03-05T16:56:02.430816","MEAN_MOTION":15.13407871,"ECCENTRICITY":0.0015139,"INCLINATION":97.553,"RA_OF_ASC_NODE":41.1955,"ARG_OF_PERICENTER":253.7581,"MEAN_ANOMALY":106.1984,"EPHEMERIS_TYPE":0,"CLASSIFICATION_TYPE":"U","NORAD_CAT_ID":63358,"ELEMENT_SET_NO":999,"REV_AT_EPOCH":5196,"BSTAR":0.0003526,"MEAN_MOTION_DOT":6.247e-5,"MEAN_MOTION_DDOT":0},{"OBJECT_NAME":"LEMUR-2-BALTO","OBJECT_ID":"2025-052BH","EPOCH":"2026-03-05T16:32:52.704960","MEAN_MOTION":14.9886486,"ECCENTRICITY":0.0002797,"INCLINATION":97.6992,"RA_OF_ASC_NODE":319.5613,"ARG_OF_PERICENTER":9.9397,"MEAN_ANOMALY":350.1881,"EPHEMERIS_TYPE":0,"CLASSIFICATION_TYPE":"U","NORAD_CAT_ID":63395,"ELEMENT_SET_NO":999,"REV_AT_EPOCH":5325,"BSTAR":0.00074421,"MEAN_MOTION_DOT":8.934e-5,"MEAN_MOTION_DDOT":0}]
